HAWK-11B                
1 62379U 24247C   26068.44730104  .00009093  00000+0  32842-3 0  9993
2 62379  45.0161 115.7610 0004690 333.0326  27.0314 15.28847070 67738
STARLINK-33843          
1 63507U 25071Q   26068.51866243  .00033475  00000+0  11376-2 0  9994
2 63507  53.1604 140.6904 0001371  71.6545 288.4605 15.30190705 52726
